[{"OBJECT_NAME":"STARLINK-30494","OBJECT_ID":"2023-151G","EPOCH":"2026-03-09T08:39:06.366240","MEAN_MOTION":15.28417441,"ECCENTRICITY":0.00011553,"INCLINATION":43.0027,"RA_OF_ASC_NODE":192.4566,"ARG_OF_PERICENTER":241.5536,"MEAN_ANOMALY":118.52,"EPHEMERIS_TYPE":0,"CLASSIFICATION_TYPE":"U","NORAD_CAT_ID":57970,"ELEMENT_SET_NO":999,"REV_AT_EPOCH":13740,"BSTAR":-3.569111e-5,"MEAN_MOTION_DOT":-1.272e-5,"MEAN_MOTION_DDOT":0},{"OBJECT_NAME":"STARLINK-35072","OBJECT_ID":"2025-198P","EPOCH":"2026-03-09T20:00:18.164448","MEAN_MOTION":15.30205252,"ECCENTRICITY":0.00010767,"INCLINATION":53.1581,"RA_OF_ASC_NODE":270.2196,"ARG_OF_PERICENTER":73.5353,"MEAN_ANOMALY":286.5766,"EPHEMERIS_TYPE":0,"CLASSIFICATION_TYPE":"U","NORAD_CAT_ID":65505,"ELEMENT_SET_NO":999,"REV_AT_EPOCH":2864,"BSTAR":0.00083041101,"MEAN_MOTION_DOT":0.0002432,"MEAN_MOTION_DDOT":0}]
